NORAD_CAT_ID,OBJECT_NAME,OBJECT_TYPE,EPOCH,MEAN_MOTION,ECCENTRICITY,INCLINATION,RA_OF_ASC_NODE,ARG_OF_PERICENTER,MEAN_ANOMALY,BSTAR,MEAN_MOTION_DOT,MEAN_MOTION_DDOT,TLE_LINE0,TLE_LINE1,TLE_LINE2,SEMIMAJOR_AXIS,PERIOD,APOGEE,PERIGEE,DECAYED
49727.0,STARLINK-3242,PAYLOAD,2022-09-13 21:26:20,15.08841761,0.0001675999999999,53.2159,112.9369,63.3991,296.7173,8.860299999999999e-05,1.122e-05,0.0,0 STARLINK-3242,1 49727U 21115D   22256.89329322  .00001122  00000-0  88603-4 0  9999,2 49727  53.2159 112.9369 0001676  63.3991 296.7173 15.08841761 43247,6917.875,95.437,540.899,538.581,0.0
49727.0,STARLINK-3242,PAYLOAD,2022-09-14 00:37:07,15.08838414,0.0001636,53.2162,112.343,63.5228,296.5931,5.709e-05,6.21e-06,0.0,0 STARLINK-3242,1 49727U 21115D   22257.02577605  .00000621  00000-0  57090-4 0  9993,2 49727  53.2162 112.3430 0001636  63.5228 296.5931 15.08838414 44371,6917.885,95.438,540.882,538.618,0.0
49727.0,STARLINK-3242,PAYLOAD,2022-09-14 06:58:39,15.08841227,0.0001495,53.2152,111.1541,62.1375,297.9768,4.1169e-05,3.67e-06,0.0,0 STARLINK-3242,1 49727U 21115D   22257.29073417  .00000367  00000-0  41169-4 0  9991,2 49727  53.2152 111.1541 0001495  62.1375 297.9768 15.08841227 43302,6917.877,95.437,540.776,538.707,0.0
49727.0,STARLINK-3242,PAYLOAD,2022-09-15 00:27:54,15.0883272,0.0001724,53.2167,107.8822,64.4106,295.7064,-3.3161e-05,-8.16e-06,0.0,0 STARLINK-3242,1 49727U 21115D   22258.01938465 -.00000816  00000-0 -33161-4 0  9999,2 49727  53.2167 107.8822 0001724  64.4106 295.7064 15.08832720 44522,6917.903,95.438,540.96,538.575,0.0
49727.0,STARLINK-3242,PAYLOAD,2022-09-15 06:49:26,15.08867086,0.0001879,53.2173,106.693,57.6244,302.493,-0.00038773,-6.458e-05,0.0,0 STARLINK-3242,1 49727U 21115D   22258.28433355 -.00006458  00000-0 -38773-3 0  9997,2 49727  53.2173 106.6930 0001879  57.6244 302.4930 15.08867086 44569,6917.7980000000025,95.436,540.962,538.363,0.0
49727.0,STARLINK-3242,PAYLOAD,2022-09-15 21:07:55,15.08843995,0.000134,53.216,104.0175,64.988,295.1251,-7.5963e-05,-1.497e-05,0.0,0 STARLINK-3242,1 49727U 21115D   22258.88050203 -.00001497  00000-0 -75963-4 0  9991,2 49727  53.2160 104.0175 0001340  64.9880 295.1251 15.08843995 43542,6917.868,95.437,540.66,538.806,0.0
49727.0,STARLINK-3242,PAYLOAD,2022-09-16 13:01:46,15.0883721,0.00018,53.2147,101.044,59.728,300.389,0.00012367,1.681e-05,0.0,0 STARLINK-3242,1 49727U 21115D   22259.54290298  .00001681  00000-0  12367-3 0  9996,2 49727  53.2147 101.0440 0001800  59.7280 300.3890 15.08837210 43648,6917.889,95.438,540.999,538.509,0.0
49727.0,STARLINK-3242,PAYLOAD,2022-09-16 14:37:10,15.08838464,0.0001846,53.2154,100.7451,65.8503,294.2682,4.6475e-05,4.52e-06,0.0,0 STARLINK-3242,1 49727U 21115D   22259.60914622  .00000452  00000-0  46475-4 0  9990,2 49727  53.2154 100.7451 0001846  65.8503 294.2682 15.08838464 43653,6917.885,95.438,541.0269999999998,538.4730000000002,0.0
49727.0,STARLINK-3242,PAYLOAD,2022-09-17 00:09:29,15.0883326,0.0001994,53.2156,98.9608,66.4384,293.6817,-7.0851e-06,-4.01e-06,0.0,0 STARLINK-3242,1 49727U 21115D   22260.00659082 -.00000401  00000-0 -70851-5 0  9994,2 49727  53.2156  98.9608 0001994  66.4384 293.6817 15.08833260 43714,6917.901,95.438,541.145,538.387,0.0
49727.0,STARLINK-3242,PAYLOAD,2022-09-17 20:49:29,15.08841912,0.0001636,53.2162,95.0957,62.38399999999999,297.7318,2.5958e-05,1.25e-06,0.0,0 STARLINK-3242,1 49727U 21115D   22260.86770480  .00000125  00000-0  25958-4 0  9992,2 49727  53.2162  95.0957 0001636  62.3840 297.7318 15.08841912 43849,6917.875,95.437,540.871,538.6080000000002,0.0
49727.0,STARLINK-3242,PAYLOAD,2022-09-18 00:00:15,15.08843305,0.0001754999999999,53.2163,94.5006,64.4486,295.6687,5.3305e-05,5.6e-06,0.0,0 STARLINK-3242,1 49727U 21115D   22261.00018325  .00000560  00000-0  53305-4 0  9992,2 49727  53.2163  94.5006 0001755  64.4486 295.6687 15.08843305 44979,6917.87,95.437,540.9490000000002,538.521,0.0
49727.0,STARLINK-3242,PAYLOAD,2022-09-18 06:21:48,15.0884656,0.0001751999999999,53.2164,93.3111,64.5873,295.53,7.8088e-05,9.55e-06,0.0,0 STARLINK-3242,1 49727U 21115D   22261.26514002  .00000955  00000-0  78088-4 0  9996,2 49727  53.2164  93.3111 0001752  64.5873 295.5300 15.08846560 43901,6917.86,95.437,540.937,538.513,0.0
49727.0,STARLINK-3242,PAYLOAD,2022-09-18 19:04:53,15.0883818,0.0002147,53.2167,90.9315,80.8515,279.272,3.8941e-05,3.32e-06,0.0,0 STARLINK-3242,1 49727U 21115D   22261.79506582  .00000332  00000-0  38941-4 0  9991,2 49727  53.2167  90.9315 0002147  80.8515 279.2720 15.08838180 43988,6917.886,95.438,541.236,538.266,0.0
49727.0,STARLINK-3242,PAYLOAD,2022-09-18 22:15:39,15.08839555,0.000171,53.2168,90.3368,67.9819,292.1355,-1.9159e-05,-5.93e-06,0.0,0 STARLINK-3242,1 49727U 21115D   22261.92754615 -.00000593  00000-0 -19159-4 0  9999,2 49727  53.2168  90.3368 0001710  67.9819 292.1355 15.08839555 45111,6917.882,95.438,540.93,538.564,0.0
49727.0,STARLINK-3242,PAYLOAD,2022-09-19 10:58:44,15.08837833,0.0001712,53.2168,87.9579,63.7705,296.3463,7.8175e-05,9.56e-06,0.0,0 STARLINK-3242,1 49727U 21115D   22262.45746501  .00000956  00000-0  78175-4 0  9997,2 49727  53.2168  87.9579 0001712  63.7705 296.3463 15.08837833 44085,6917.887,95.438,540.936,538.568,0.0
49727.0,STARLINK-3242,PAYLOAD,2022-09-19 17:20:17,15.08836069,0.0001728,53.217,86.7685,64.2944,295.8227,-3.8561e-06,-3.49e-06,0.0,0 STARLINK-3242,1 49727U 21115D   22262.72243005 -.00000349  00000-0 -38561-5 0  9992,2 49727  53.2170  86.7685 0001728  64.2944 295.8227 15.08836069 44128,6917.892,95.438,540.953,538.562,0.0
49727.0,STARLINK-3242,PAYLOAD,2022-09-19 22:06:27,15.08832148,0.0001703,53.2169,85.8768,62.8919,297.2246,1.2981e-05,-8.1e-07,0.0,0 STARLINK-3242,1 49727U 21115D   22262.92115237 -.00000081  00000-0  12981-4 0  9998,2 49727  53.2169  85.8768 0001703  62.8919 297.2246 15.08832148 45264,6917.904,95.438,540.948,538.591,0.0
49727.0,STARLINK-3242,PAYLOAD,2022-09-20 12:24:55,15.08839634,0.0001674,53.2159,83.1994,58.1915,301.9240000000001,-3.5082e-06,-3.44e-06,0.0,0 STARLINK-3242,1 49727U 21115D   22263.51730898 -.00000344  00000-0 -35082-5 0  9991,2 49727  53.2159  83.1994 0001674  58.1915 301.9240 15.08839634 45350,6917.882,95.438,540.905,538.5880000000002,0.0
49727.0,STARLINK-3242,PAYLOAD,2022-09-21 13:51:04,15.08907807,0.0001171999999999,53.216,78.4421,53.4895,306.6205,-0.00083566,-0.00013587,0.0,0 STARLINK-3242,1 49727U 21115D   22264.57713234 -.00013587  00000-0 -83566-3 0  9994,2 49727  53.2160  78.4421 0001172  53.4895 306.6205 15.08907807 44408,6917.6730000000025,95.433,540.349,538.727,0.0
49727.0,STARLINK-3242,PAYLOAD,2022-09-22 16:52:38,15.08840828,0.000135,53.2167,73.3863,65.9379,294.1754,1.8734e-05,1e-07,0.0,0 STARLINK-3242,1 49727U 21115D   22265.70322906  .00000010  00000-0  18734-4 0  9993,2 49727  53.2167  73.3863 0001350  65.9379 294.1754 15.08840828 45682,6917.878000000002,95.438,540.677,538.809,0.0
49727.0,STARLINK-3242,PAYLOAD,2022-09-22 20:03:25,15.08833462,0.0001824,53.2163,72.7928,53.8327,306.2833,-1.5688e-05,-5.38e-06,0.0,0 STARLINK-3242,1 49727U 21115D   22265.83571618 -.00000538  00000-0 -15688-4 0  9995,2 49727  53.2163  72.7928 0001824  53.8327 306.2833 15.08833462 44596,6917.9,95.438,541.0269999999998,538.504,0.0
49727.0,STARLINK-3242,PAYLOAD,2022-09-23 04:00:21,15.0883566,0.0001726,53.2167,71.3056,58.5013,301.6148,-5.0397e-05,-1.09e-05,0.0,0 STARLINK-3242,1 49727U 21115D   22266.16691659 -.00001090  00000-0 -50397-4 0  9990,2 49727  53.2167  71.3056 0001726  58.5013 301.6148 15.08835660 44648,6917.894,95.438,540.953,538.565,0.0
49727.0,STARLINK-3242,PAYLOAD,2022-09-23 19:54:12,15.08838046,0.0001634,53.2168,68.3319,57.7218,302.3932,5.1302e-05,5.28e-06,0.0,0 STARLINK-3242,1 49727U 21115D   22266.82931304  .00000528  00000-0  51302-4 0  9997,2 49727  53.2168  68.3319 0001634  57.7218 302.3932 15.08838046 45857,6917.886,95.438,540.882,538.621,0.0
49727.0,STARLINK-3242,PAYLOAD,2022-09-24 18:09:35,15.08848713,0.000169,53.2171,64.1685,58.2177,301.8979,0.00019753,2.858e-05,0.0,0 STARLINK-3242,1 49727U 21115D   22267.75666180  .00002858  00000-0  19753-3 0  9998,2 49727  53.2171  64.1685 0001690  58.2177 301.8979 15.08848713 45995,6917.854,95.437,540.888,538.55,0.0
49727.0,STARLINK-3242,PAYLOAD,2022-09-24 22:55:45,15.0884543,0.0002059,53.2185,63.2772,53.9401,306.1782,0.00012976,1.778e-05,0.0,0 STARLINK-3242,1 49727U 21115D   22267.95538647  .00001778  00000-0  12976-3 0  9996,2 49727  53.2185  63.2772 0002059  53.9401 306.1782 15.08845430 44913,6917.864000000001,95.437,541.153,538.304,0.0
49727.0,STARLINK-3242,PAYLOAD,2022-09-25 16:25:00,15.08840918,0.0001376999999999,53.2174,60.0043,64.3438,295.7696,3.5427e-05,2.76e-06,0.0,0 STARLINK-3242,1 49727U 21115D   22268.68403044  .00000276  00000-0  35427-4 0  9998,2 49727  53.2174  60.0043 0001377  64.3438 295.7696 15.08840918 46134,6917.878000000002,95.437,540.695,538.79,0.0
49727.0,STARLINK-3242,PAYLOAD,2022-09-25 19:35:46,15.08838486,0.0001421,53.2174,59.41,61.267,298.8465,1.4412e-05,-5.9e-07,0.0,0 STARLINK-3242,1 49727U 21115D   22268.81651288 -.00000059  00000-0  14412-4 0  9999,2 49727  53.2174  59.4100 0001421  61.2670 298.8465 15.08838486 45048,6917.885,95.438,540.7330000000002,538.7669999999998,0.0
49727.0,STARLINK-3242,PAYLOAD,2022-09-26 13:05:01,15.08840427,0.0001411,53.2176,56.1387,62.1892,297.9243,-0.00010326,-1.931e-05,0.0,0 STARLINK-3242,1 49727U 21115D   22269.54515571 -.00001931  00000-0 -10326-3 0  9994,2 49727  53.2176  56.1387 0001411  62.1892 297.9243 15.08840427 45150,6917.879,95.438,540.72,538.768,0.0
49727.0,STARLINK-3242,PAYLOAD,2022-09-26 16:15:47,15.08839751,0.0001381,53.2172,55.544,68.5293,291.5847,-0.00012153,-2.222e-05,0.0,0 STARLINK-3242,1 49727U 21115D   22269.67763647 -.00002222  00000-0 -12153-3 0  9991,2 49727  53.2172  55.5440 0001381  68.5293 291.5847 15.08839751 46283,6917.880999999999,95.438,540.702,538.7909999999998,0.0
